NORAD_CAT_ID,OBJECT_NAME,OBJECT_TYPE,EPOCH,MEAN_MOTION,ECCENTRICITY,INCLINATION,RA_OF_ASC_NODE,ARG_OF_PERICENTER,MEAN_ANOMALY,BSTAR,MEAN_MOTION_DOT,MEAN_MOTION_DDOT,TLE_LINE0,TLE_LINE1,TLE_LINE2,SEMIMAJOR_AXIS,PERIOD,APOGEE,PERIGEE,DECAYED
52643.0,STARLINK-3963,PAYLOAD,2022-10-15 12:14:27,15.08843308,0.000197,53.2198,70.9831,30.6504,329.4603,7.4852e-05,9.03e-06,0.0,0 STARLINK-3963,1 52643U 22052AX  22288.51004244  .00000903  00000-0  74852-4 0  9995,2 52643  53.2198  70.9831 0001970  30.6504 329.4603 15.08843308 23757,6917.87,95.437,541.0980000000002,538.372,0.0
52643.0,STARLINK-3963,PAYLOAD,2022-10-15 18:35:59,15.08847383,0.0002093,53.2196,69.7939,29.8946,330.2165,0.00010591,1.398e-05,0.0,0 STARLINK-3963,1 52643U 22052AX  22288.77499835  .00001398  00000-0  10591-3 0  9995,2 52643  53.2196  69.7939 0002093  29.8946 330.2165 15.08847383 24174,6917.858,95.437,541.1709999999998,538.275,0.0
52643.0,STARLINK-3963,PAYLOAD,2022-10-16 08:54:29,15.08824922,0.0002338,53.2195,67.119,32.3808,327.7327,2.6804e-06,-2.46e-06,0.0,0 STARLINK-3963,1 52643U 22052AX  22289.37117955 -.00000246  00000-0  26804-5 0  9990,2 52643  53.2195  67.1190 0002338  32.3808 327.7327 15.08824922 24267,6917.926,95.439,541.409,538.174,0.0
52643.0,STARLINK-3963,PAYLOAD,2022-10-16 12:05:16,15.08826616,0.0002035,53.2199,66.52,3.2824,356.8181,-0.0001174,-2.155e-05,0.0,0 STARLINK-3963,1 52643U 22052AX  22289.50366271 -.00002155  00000-0 -11740-3 0  9995,2 52643  53.2199  66.5200 0002035   3.2824 356.8181 15.08826616 23908,6917.920999999999,95.438,541.194,538.379,0.0
52643.0,STARLINK-3963,PAYLOAD,2022-10-16 18:26:49,15.08824283,0.0002078,53.2198,65.3326,35.8981,324.215,-9.1436e-05,-1.743e-05,0.0,0 STARLINK-3963,1 52643U 22052AX  22289.76862650 -.00001743  00000-0 -91436-4 0  9998,2 52643  53.2198  65.3326 0002078  35.8981 324.2150 15.08824283 23942,6917.928000000001,95.439,541.231,538.356,0.0
52643.0,STARLINK-3963,PAYLOAD,2022-10-17 13:31:26,15.08839036,0.000212,53.22,61.7651,37.6791,322.4349,2.4053e-06,-2.5e-06,0.0,0 STARLINK-3963,1 52643U 22052AX  22290.56350031 -.00000250  00000-0  24053-5 0  9996,2 52643  53.2200  61.7651 0002120  37.6791 322.4349 15.08839036 24060,6917.8830000000025,95.438,541.215,538.2819999999998,0.0
52643.0,STARLINK-3963,PAYLOAD,2022-10-17 18:17:35,15.08844646,0.0002058,53.2203,60.8725,41.2379,318.8768,4.743e-05,4.67e-06,0.0,0 STARLINK-3963,1 52643U 22052AX  22290.76221609  .00000467  00000-0  47430-4 0  9998,2 52643  53.2203  60.8725 0002058  41.2379 318.8768 15.08844646 24470,6917.866,95.437,541.155,538.307,0.0
52643.0,STARLINK-3963,PAYLOAD,2022-10-18 08:36:03,15.08834719,0.0001956999999999,53.221,58.1962,48.3455,311.7705,0.00025439,3.762e-05,0.0,0 STARLINK-3963,1 52643U 22052AX  22291.35837962  .00003762  00000-0  25439-3 0  9994,2 52643  53.2210  58.1962 0001957  48.3455 311.7705 15.08834719 24564,6917.897,95.438,541.115,538.408,0.0
52643.0,STARLINK-3963,PAYLOAD,2022-10-18 14:57:36,15.08834365,0.0002473,53.2219,57.0106,41.4767,318.6413,0.00030063,4.499e-05,0.0,0 STARLINK-3963,1 52643U 22052AX  22291.62334161  .00004499  00000-0  30063-3 0  9994,2 52643  53.2219  57.0106 0002473  41.4767 318.6413 15.08834365 24227,6917.898,95.438,541.4730000000002,538.052,0.0
52643.0,STARLINK-3963,PAYLOAD,2022-10-19 02:05:19,15.08831823,0.0002206,53.2198,54.9291,35.0035,325.1102,0.00015607,2.196e-05,0.0,0 STARLINK-3963,1 52643U 22052AX  22292.08702877  .00002196  00000-0  15607-3 0  9997,2 52643  53.2198  54.9291 0002206  35.0035 325.1102 15.08831823 24678,6917.905,95.438,541.2959999999998,538.244,0.0
52643.0,STARLINK-3963,PAYLOAD,2022-10-19 11:37:37,15.08842685,0.0002359,53.2195,53.143,36.3017,323.8134,0.00012243,1.661e-05,0.0,0 STARLINK-3963,1 52643U 22052AX  22292.48446400  .00001661  00000-0  12243-3 0  9997,2 52643  53.2195  53.1430 0002359  36.3017 323.8134 15.08842685 24357,6917.871999999999,95.437,541.369,538.105,0.0
52643.0,STARLINK-3963,PAYLOAD,2022-10-19 17:59:10,15.08841707,0.0002411999999999,53.2191,51.9531,33.7163,326.3982,7.2802e-05,8.71e-06,0.0,0 STARLINK-3963,1 52643U 22052AX  22292.74942490  .00000871  00000-0  72802-4 0  9996,2 52643  53.2191  51.9531 0002412  33.7163 326.3982 15.08841707 24391,6917.875,95.437,541.409,538.072,0.0
52643.0,STARLINK-3963,PAYLOAD,2022-10-20 11:28:24,15.08849243,0.0002542,53.2196,48.6828,40.5689,319.5492,0.00010021,1.307e-05,0.0,0 STARLINK-3963,1 52643U 22052AX  22293.47805764  .00001307  00000-0  10021-3 0  9998,2 52643  53.2196  48.6828 0002542  40.5689 319.5492 15.08849243 24507,6917.852,95.437,541.476,537.9590000000002,0.0
52643.0,STARLINK-3963,PAYLOAD,2022-10-21 00:11:29,15.08841837,0.0002427,53.2192,46.3029,31.8607,328.2532,9.5888e-05,1.238e-05,0.0,0 STARLINK-3963,1 52643U 22052AX  22294.00798094  .00001238  00000-0  95888-4 0  9993,2 52643  53.2192  46.3029 0002427  31.8607 328.2532 15.08841837 24969,6917.875,95.437,541.419,538.061,0.0
52643.0,STARLINK-3963,PAYLOAD,2022-10-21 09:43:48,15.08837984,0.0002368,53.2188,44.5184,45.4514,314.6672,-1.5985e-05,-5.43e-06,0.0,0 STARLINK-3963,1 52643U 22052AX  22294.40542678 -.00000543  00000-0 -15985-4 0  9992,2 52643  53.2188  44.5184 0002368  45.4514 314.6672 15.08837984 24645,6917.887,95.438,541.39,538.113,0.0
52643.0,STARLINK-3963,PAYLOAD,2022-10-21 16:05:21,15.0883842,0.0002203,53.221,43.3307,41.5366,318.5793,-2.2956e-05,-6.54e-06,0.0,0 STARLINK-3963,1 52643U 22052AX  22294.67038656 -.00000654  00000-0 -22956-4 0  9996,2 52643  53.2210  43.3307 0002203  41.5366 318.5793 15.08838420 24682,6917.885,95.438,541.274,538.226,0.0
52643.0,STARLINK-3963,PAYLOAD,2022-10-22 12:45:22,15.08842566,0.0002190999999999,53.2222,39.4661,49.3776,310.7407,-1.1485e-05,-4.71e-06,0.0,0 STARLINK-3963,1 52643U 22052AX  22295.53150477 -.00000471  00000-0 -11485-4 0  9990,2 52643  53.2222  39.4661 0002191  49.3776 310.7407 15.08842566 24818,6917.873000000001,95.437,541.253,538.222,0.0
52643.0,STARLINK-3963,PAYLOAD,2022-10-22 15:56:08,15.08845283,0.0002261,53.2219,38.8719,41.5135,318.6028,-9.5755e-08,-2.9e-06,0.0,0 STARLINK-3963,1 52643U 22052AX  22295.66398300 -.00000290  00000-0 -95755-7 0  9997,2 52643  53.2219  38.8719 0002261  41.5135 318.6028 15.08845283 25212,6917.864000000001,95.437,541.293,538.165,0.0
52643.0,STARLINK-3963,PAYLOAD,2022-10-23 09:25:21,15.08855936,0.0002505999999999,53.2217,35.6003,47.4816,312.6387,0.00012575,1.714e-05,0.0,0 STARLINK-3963,1 52643U 22052AX  22296.39261178  .00001714  00000-0  12575-3 0  9995,2 52643  53.2217  35.6003 0002506  47.4816 312.6387 15.08855936 25324,6917.831999999999,95.437,541.43,537.9630000000002,0.0
52643.0,STARLINK-3963,PAYLOAD,2022-10-23 11:00:44,15.08850275,0.000224,53.2217,35.3029,41.3025,318.8137,0.00020126,2.917e-05,0.0,0 STARLINK-3963,1 52643U 22052AX  22296.45885314  .00002917  00000-0  20126-3 0  9993,2 52643  53.2217  35.3029 0002240  41.3025 318.8137 15.08850275 24959,6917.849,95.437,541.264,538.164,0.0
52643.0,STARLINK-3963,PAYLOAD,2022-10-23 15:46:54,15.08856317,0.0002354,53.2202,34.4099,35.2066,324.9081,0.00029636,4.434e-05,0.0,0 STARLINK-3963,1 52643U 22052AX  22296.65757095  .00004434  00000-0  29636-3 0  9990,2 52643  53.2202  34.4099 0002354  35.2066 324.9081 15.08856317 24985,6917.831,95.437,541.3240000000002,538.067,0.0
52643.0,STARLINK-3963,PAYLOAD,2022-10-24 07:40:45,15.08845526,0.0002195999999999,53.2204,31.4362,30.8511,329.261,9.3343e-05,1.198e-05,0.0,0 STARLINK-3963,1 52643U 22052AX  22297.31997047  .00001198  00000-0  93343-4 0  9998,2 52643  53.2204  31.4362 0002196  30.8511 329.2610 15.08845526 25467,6917.863,95.437,541.248,538.2090000000002,0.0
52643.0,STARLINK-3963,PAYLOAD,2022-10-24 12:26:55,15.0882724,0.0002272,53.2196,30.5445,35.1943,324.9199,-0.00036303,-6.059e-05,0.0,0 STARLINK-3963,1 52643U 22052AX  22297.51869668 -.00006059  00000-0 -36303-3 0  9992,2 52643  53.2196  30.5445 0002272  35.1943 324.9199 15.08827240 25110,6917.919,95.438,541.356,538.2130000000002,0.0
52643.0,STARLINK-3963,PAYLOAD,2022-10-24 15:37:41,15.08821751,0.0002143,53.2198,29.9497,29.5499,330.5614,-0.00058127,-9.523e-05,0.0,0 STARLINK-3963,1 52643U 22052AX  22297.65117690 -.00009523  00000-0 -58127-3 0  9995,2 52643  53.2198  29.9497 0002143  29.5499 330.5614 15.08821751 25511,6917.936,95.439,541.284,538.319,0.0
52643.0,STARLINK-3963,PAYLOAD,2022-10-25 10:42:20,15.08817707,0.0002471,53.2204,26.3829,32.1543,327.96,-0.00020448,-3.539e-05,0.0,0 STARLINK-3963,1 52643U 22052AX  22298.44607318 -.00003539  00000-0 -20448-3 0  9990,2 52643  53.2204  26.3829 0002471  32.1543 327.9600 15.08817707 25255,6917.949000000001,95.439,541.523,538.104,0.0
52643.0,STARLINK-3963,PAYLOAD,2022-10-25 17:03:53,15.08814175,0.0002391,53.2197,25.1932,28.3793,331.7329,0.00042476,6.474e-05,0.0,0 STARLINK-3963,1 52643U 22052AX  22298.71103994  .00006474  00000-0  42476-3 0  9995,2 52643  53.2197  25.1932 0002391  28.3793 331.7329 15.08814175 25294,6917.959,95.439,541.4780000000002,538.17,0.0
52643.0,STARLINK-3963,PAYLOAD,2022-10-26 12:08:32,15.08837962,0.0002535,53.2198,21.625,31.9101,328.2044,0.0008095,0.00012618,0.0,0 STARLINK-3963,1 52643U 22052AX  22299.50592641  .00012618  00000-0  80950-3 0  9990,2 52643  53.2198  21.6250 0002535  31.9101 328.2044 15.08837962 25791,6917.887,95.438,541.505,537.998,0.0
52643.0,STARLINK-3963,PAYLOAD,2022-10-26 16:54:41,15.08844643,0.0002576,53.2199,20.7332,31.5148,328.5998,0.00077264,0.00012032,0.0,0 STARLINK-3963,1 52643U 22052AX  22299.70464576  .00012032  00000-0  77264-3 0  9991,2 52643  53.2199  20.7332 0002576  31.5148 328.5998 15.08844643 25442,6917.866,95.437,541.513,537.9490000000002,0.0
52643.0,STARLINK-3963,PAYLOAD,2022-10-27 08:48:32,15.08860179,0.0002658,53.2201,17.7598,32.5142,327.6013,0.00071816,0.00011166,0.0,0 STARLINK-3963,1 52643U 22052AX  22300.36703993  .00011166  00000-0  71816-3 0  9999,2 52643  53.2201  17.7598 0002658  32.5142 327.6013 15.08860179 25543,6917.819,95.436,541.5219999999998,537.845,0.0
